#dP2023  4  9  0  0  0.00000000      96 __u+U IGS14 FIT  IAC
## 2257      0.00000000   900.00000000 60043 0.0000000000000
+  119   C06C07C08C09C10C11C12C13C14C16C19C20C21C22C23C24C25
+        C26C27C28C29C30C32C33C34C35C36C37C38C39C40C41C42C43
+        C44C45C46E01E02E03E04E05E07E08E09E10E11E12E13E14E15
+        E18E19E21E24E25E26E27E30E31E33E34E36G01G02G03G04G05
+        G06G07G08G09G10G11G12G13G14G15G16G17G18G19G20G21G22
+        G23G24G25G26G27G28G29G30G31G32J02J03J04R01R02R03R04
+        R05R07R08R09R11R12R13R14R15R16R17R18R19R20R22R24R25
++         7  7  7  7  7  7  7  7  7  7  6  6  6  6  6  6  6
++         6  6  6  6  6  6  6  6  6  6  6  6  7  6  6  6  6
++         6  6  6  4  4  5  4  4  4  4  4  4  4  5  4  4  4
++         5  4  4  5  4  4  4  4  4  5  4  4  4  5  3  3  3
++         4  4  4  3  4  3  3  4  4  4  3  4  4  4  4  4  4
++         4  4  3  3  3  4  3  4  3  4  9  9 10  8  7  7  7
++         7  7  7  7  7  7  7  7  7  7  7  7  8  8  6  7  7
%c M  cc GPS ccc cccc cccc cccc cccc ccccc ccccc ccccc ccccc
%c cc cc ccc ccc cccc cccc cccc cccc ccccc ccccc ccccc ccccc
%f  1.2500000  1.025000000  0.00000000000  0.000000000000000
%f  0.0000000  0.000000000  0.00000000000  0.000000000000000
%i    0    0    0    0      0      0      0      0         0
%i    0    0    0    0      0      0      0      0         0
/* INFORMATION & ANALYSIS CENTER (IAC)            FINAL DATA
/* S/V CLOCKS ARE ALIGNED TO GNSS TIME                      
/* G:C1WC2W R:C1PC2P E:C1XC5X C:C2IC6I J:C1CC2S             
/* PCV:IGS20_2247 OL/AL:FES2004  NONE     YN ORB:CoN CLK:CoN
*  2023 04 09 19 45  0.00000000
PC06  -2470.495923  27680.380927  31812.495590   -197.231118
PC07 -18543.387806  30922.338988 -21950.982133   -145.985335
PC08  -8883.259062  40608.242826  -6471.818708    507.508526
PC09   6377.551179  32042.110699  27365.040858    785.712261
PC10 -10786.304636  31083.891840 -26333.231001    -29.305024
PC11  22039.158512  16365.140111  -4918.916708    291.448642
PC12   6845.855688  18641.081988 -19572.162789    561.051174
PC13  -4091.892022  41827.867326    226.634112    249.100024
PC14  15145.488221   8239.428095  21952.899042    101.791216
PC16  -5074.039757  25770.303086  33270.222024    114.206435
PC19 -21870.660602   -167.765313 -17315.160165   -900.088669
PC20  -7781.442762 -13660.586962 -23036.175552    634.547574
PC21 -12213.442751  19960.588685  15247.343337   -909.582093
PC22 -24091.046673  14054.694546  -1329.076157   -543.852859
PC23  14676.810974 -11226.287128 -20911.824619   -902.633178
PC24   6877.310562  25744.159084  -8263.007400   -191.043198
PC25  15806.653713   8862.219319 -21226.842063    103.486064
PC26  -4072.720241  26445.468334   7847.485329   -103.965413
PC27   2424.304455 -16418.169215  22409.065841    123.204924
PC28  18963.971369  -5325.038424  19769.140933     90.657744
PC29 -25910.670939  -9348.712547  -4461.144845    104.949861
PC30 -16206.663210 -18390.121030  13303.033347      0.485923
PC32  12112.365819 -20034.263416 -15153.728608   -582.129127
PC33  21804.886618    190.065279  17413.416345   -872.833831
PC34  17271.976418  18196.098659 -12263.022710    145.350874
PC35 -19442.853413   5401.070461 -19272.074836    649.064121
PC36 -15450.805052 -10046.164531  20975.676853   -511.104779
PC37   5503.704163 -25844.556162  -8999.655997   -791.612814
PC38 -13120.435916  37345.744652 -14294.824816     70.678164
PC39 -10094.486733  22213.678161  34449.267839     -2.488803
PC40 -25220.212081  25331.627635 -22558.743835    -19.896031
PC41  24226.359426 -13694.117160   2059.138327   -829.928600
PC42   6449.973257  14550.236342  22973.560202   -744.904371
PC43  25820.573463   9981.165543   3625.791748     15.908588
PC44  -2051.389156  16580.940878 -22372.538518     70.873366
PC45 -14442.208853  11670.724122  20822.364835    -82.995840
PC46  -7763.862146 -25002.239078   9711.690190    -45.845413
PE01 -19322.887144   3178.905335  22190.401199     -4.178663
PE02  19470.218084  -3699.909436 -22000.671090     31.382959
PE03  29583.529785    224.733456    767.051380   -667.597113
PE04 -21750.580771  11707.125388  16323.615933    -97.020291
PE05  20177.513407  12317.290540  17821.465526    -78.330633
PE07   1114.244638 -17015.914674 -24182.875330    -36.365122
PE08  21918.717749 -11524.203118 -16200.449968    -64.777677
PE09  -1322.649504  16881.005674  24286.990575   -899.175199
PE10  -3048.109722  20890.599592 -20757.618747   -525.293663
PE11   5523.845154  25964.806580 -13130.041896   1550.452526
PE12 -10518.037379  13148.504814 -24352.373231   -492.191748
PE13  -4946.449378 -25683.512899  13845.463294    -18.411907
PE14 -23039.242954  13362.371297 -18560.691407    192.522125
PE15  10696.344084 -12767.605933  24470.610239    -13.432910
PE18  13247.126533 -11665.854215  15628.106556   -184.516770
PE19 -29337.993502  -2085.441495  -3311.381930  -2804.545532
PE21  -9707.385734 -15352.375244  23366.561365   -522.439263
PE24  -6843.032158  26745.134009 -10665.717882    -35.262887
PE25   9474.776806  15637.431007 -23276.913583   -602.972007
PE26 -17811.857662 -22986.138492  -5506.809304     70.455894
PE27   6194.204451 -26644.256960  11320.246885    -21.100558
PE30  18604.617461 -21671.152351  -7818.651924    -79.766170
PE31 -18276.458311  22117.938074   7266.880855   -520.861179
PE33 -19889.225936  -7561.639340 -20568.599824   -446.749399
PE34  19878.810599   7383.368759  20645.262720    -39.368252
PE36  17500.338730  23406.043125   4754.120426    -38.930494
PG01  17214.764635   6482.408838  18968.082128    194.748105
PG02 -15563.103721   2332.786218 -20892.376106   -607.590597
PG03  18146.154390  -5505.670774  18421.478648   -332.876408
PG04  26476.741075     24.121373  -2765.848941     12.904419
PG05 -11025.592726 -10980.976970 -21681.539877   -122.775665
PG06  -3301.220709 -23492.167223  11903.823053    586.203012
PG07  12310.639361  -9133.991901 -21212.599118    204.990921
PG08  24083.089778   6937.184852  -9439.431869   -116.973022
PG09  22011.443369  -8376.334613 -12392.977618   -183.422811
PG10 -10239.570843  23670.102288   5800.175094    -32.135122
PG11 -12372.619853 -23438.399664  -2003.064200   -157.139560
PG12 -17909.171021   1973.028168  19201.760019   -361.927919
PG13 -18341.680399 -13225.182430 -14268.599402    503.321782
PG14  12982.365307 -22901.963118   2898.927527     20.215761
PG15 -24743.982566  -4531.130128  -9384.217177     29.157790
PG16   7721.577545  14189.515194 -21304.305937   -509.988122
PG17   9631.399860 -13484.545616  21209.997386    709.783347
PG18  -9532.752999  12964.482553 -21101.823726   -216.989449
PG19  -1351.981827 -15061.927845  21629.723215    301.458160
PG20  -5074.203715 -19738.841160 -17101.808573    439.975927
PG21  19601.425770  13333.141805  13358.511395    154.261843
PG22   5021.298065  15615.688515  21366.921681    461.154668
PG23 -16561.499260  19701.290712  -6230.338348     15.758530
PG24 -19498.360030  -9430.869544  15289.137756   -145.420982
PG25 -18785.876734  13140.173716  12864.098747    434.352321
PG26  -1026.512412  22779.014765 -13448.303707    241.824609
PG27  15521.433432  12811.218368 -17788.456937     62.524147
PG28   2478.694984  22890.648753  13218.698536     62.010373
PG29 -24608.226858   3598.932839  -9490.779980   -594.794822
PG30   3680.187180 -19988.567241 -16854.097466   -523.153196
PG31   7169.550766  24483.763378   6351.908873   -213.597726
PG32  -5730.385702  14848.529855  21412.448510   -447.109465
PJ02 -33143.199832  25461.327295  10437.766207     -1.467549
PJ03 -23572.645779  18114.530434 -25312.643994      2.053054
PJ04 -27283.610372  32302.560072   6669.483526     94.171420
PR01 -20018.998264  13136.034759   8825.452800     26.366812
PR02  -4339.476549  12631.767788  21768.417580    -22.976865
PR03  13517.469460   5334.216867  21030.625329     75.729500
PR04  23486.616280  -4719.894271   8811.305819    182.680509
PR05  20863.637694 -12156.038513  -8238.106553    110.699881
PR07 -14143.596493  -4877.694673 -20599.745364     53.473304
PR08 -23503.559637   4987.665013  -8460.156849    -70.271435
PR09   1319.736013 -25206.275824   3404.091025    113.811593
PR11 -11056.816569    512.157573  22989.696583    -33.061463
PR12  -9400.662878  19240.266499  13869.139568     26.320344
PR13  -2510.493583  25336.720337  -1557.481351    -33.813742
PR14   6726.619709  16473.381521 -18277.058491     24.521715
PR15  11297.306206  -1695.238897 -22791.371177     89.894449
PR16   9242.445810 -19076.096635 -14160.399174     13.335002
PR17  19038.274535  16756.000113  -2567.884969    619.755427
PR18  19915.387186   8372.886619  13621.186304     75.711324
PR19  11680.638228  -3079.833798  22463.412298   -228.443546
PR20  -6139.937110 -16284.015518  18632.439220    -90.812872
PR22 -19499.472619  -8205.072284 -14214.138664     78.603451
PR24   7030.584196  16597.170031 -18032.586731    160.638007
PR25 -18139.089406 -17729.721092   2780.179388     60.608564
EOF
